CCSDS_OMM_VERS = 2.0
CREATION_DATE  = 
ORIGINATOR     = 

OBJECT_NAME    = UNKNOWN
OBJECT_ID      = 
CENTER_NAME    = EARTH
REF_FRAME      = TEME
TIME_SYSTEM    = UTC
MEAN_ELEMENT_THEORY = SGP/SGP4

EPOCH          = 2025-10-17T05:28:06.213216
MEAN_MOTION    = 14.36134798
ECCENTRICITY   = .0015417
INCLINATION    = 74.0437
RA_OF_ASC_NODE = 118.2873
ARG_OF_PERICENTER = 192.1857
MEAN_ANOMALY   = 167.8926

EPHEMERIS_TYPE = 0
CLASSIFICATION_TYPE = U
NORAD_CAT_ID   = 89003
ELEMENT_SET_NO = 999
REV_AT_EPOCH   = 62343
BSTAR          = .16019E-3
MEAN_MOTION_DOT = .441E-5
MEAN_MOTION_DDOT = 0

CCSDS_OMM_VERS = 2.0
CREATION_DATE  = 
ORIGINATOR     = 

OBJECT_NAME    = UNKNOWN
OBJECT_ID      = 
CENTER_NAME    = EARTH
REF_FRAME      = TEME
TIME_SYSTEM    = UTC
MEAN_ELEMENT_THEORY = SGP/SGP4

EPOCH          = 2025-11-08T08:09:11.258496
MEAN_MOTION    = 14.45304254
ECCENTRICITY   = .0193023
INCLINATION    = 97.8405
RA_OF_ASC_NODE = 144.0700
ARG_OF_PERICENTER = 137.2664
MEAN_ANOMALY   = 224.3724

EPHEMERIS_TYPE = 0
CLASSIFICATION_TYPE = U
NORAD_CAT_ID   = 89005
ELEMENT_SET_NO = 999
REV_AT_EPOCH   = 52912
BSTAR          = .11263E-2
MEAN_MOTION_DOT = .4935E-4
MEAN_MOTION_DDOT = 0

CCSDS_OMM_VERS = 2.0
CREATION_DATE  = 
ORIGINATOR     = 

OBJECT_NAME    = UNKNOWN
OBJECT_ID      = 
CENTER_NAME    = EARTH
REF_FRAME      = TEME
TIME_SYSTEM    = UTC
MEAN_ELEMENT_THEORY = SGP/SGP4

EPOCH          = 2025-11-07T11:24:44.689536
MEAN_MOTION    = 14.93781340
ECCENTRICITY   = .0024975
INCLINATION    = 98.0496
RA_OF_ASC_NODE = 209.8488
ARG_OF_PERICENTER = 81.2223
MEAN_ANOMALY   = 279.1823

EPHEMERIS_TYPE = 0
CLASSIFICATION_TYPE = U
NORAD_CAT_ID   = 89029
ELEMENT_SET_NO = 999
REV_AT_EPOCH   = 64581
BSTAR          = .93607E-3
MEAN_MOTION_DOT = .9932E-4
MEAN_MOTION_DDOT = 0

CCSDS_OMM_VERS = 2.0
CREATION_DATE  = 
ORIGINATOR     = 

OBJECT_NAME    = UNKNOWN
OBJECT_ID      = 
CENTER_NAME    = EARTH
REF_FRAME      = TEME
TIME_SYSTEM    = UTC
MEAN_ELEMENT_THEORY = SGP/SGP4

EPOCH          = 2025-10-25T01:40:17.698656
MEAN_MOTION    = 13.03990385
ECCENTRICITY   = .0146349
INCLINATION    = 100.4545
RA_OF_ASC_NODE = 236.3345
ARG_OF_PERICENTER = 216.5228
MEAN_ANOMALY   = 142.5827

EPHEMERIS_TYPE = 0
CLASSIFICATION_TYPE = U
NORAD_CAT_ID   = 89101
ELEMENT_SET_NO = 999
REV_AT_EPOCH   = 54850
BSTAR          = .77426E-3
MEAN_MOTION_DOT = .216E-5
MEAN_MOTION_DDOT = 0

CCSDS_OMM_VERS = 2.0
CREATION_DATE  = 
ORIGINATOR     = 

OBJECT_NAME    = UNKNOWN
OBJECT_ID      = 
CENTER_NAME    = EARTH
REF_FRAME      = TEME
TIME_SYSTEM    = UTC
MEAN_ELEMENT_THEORY = SGP/SGP4

EPOCH          = 2025-10-18T11:08:42.238464
MEAN_MOTION    = 8.86156392
ECCENTRICITY   = .2931268
INCLINATION    = 63.4250
RA_OF_ASC_NODE = 114.5551
ARG_OF_PERICENTER = 319.6561
MEAN_ANOMALY   = 21.9492

EPHEMERIS_TYPE = 0
CLASSIFICATION_TYPE = U
NORAD_CAT_ID   = 89132
ELEMENT_SET_NO = 999
REV_AT_EPOCH   = 32021
BSTAR          = .68324E-3
MEAN_MOTION_DOT = .476E-5
MEAN_MOTION_DDOT = 0

CCSDS_OMM_VERS = 2.0
CREATION_DATE  = 
ORIGINATOR     = 

OBJECT_NAME    = UNKNOWN
OBJECT_ID      = 
CENTER_NAME    = EARTH
REF_FRAME      = TEME
TIME_SYSTEM    = UTC
MEAN_ELEMENT_THEORY = SGP/SGP4

EPOCH          = 2025-11-07T18:15:51.595776
MEAN_MOTION    = 14.62622452
ECCENTRICITY   = .0093852
INCLINATION    = 98.2439
RA_OF_ASC_NODE = 240.5130
ARG_OF_PERICENTER = 163.9065
MEAN_ANOMALY   = 196.5153

EPHEMERIS_TYPE = 0
CLASSIFICATION_TYPE = U
NORAD_CAT_ID   = 89146
ELEMENT_SET_NO = 999
REV_AT_EPOCH   = 62376
BSTAR          = .10823E-2
MEAN_MOTION_DOT = .5813E-4
MEAN_MOTION_DDOT = 0

CCSDS_OMM_VERS = 2.0
CREATION_DATE  = 
ORIGINATOR     = 

OBJECT_NAME    = UNKNOWN
OBJECT_ID      = 
CENTER_NAME    = EARTH
REF_FRAME      = TEME
TIME_SYSTEM    = UTC
MEAN_ELEMENT_THEORY = SGP/SGP4

EPOCH          = 2025-11-08T07:04:05.741760
MEAN_MOTION    = 15.32970775
ECCENTRICITY   = .0041839
INCLINATION    = 97.6636
RA_OF_ASC_NODE = 326.5986
ARG_OF_PERICENTER = 181.2145
MEAN_ANOMALY   = 178.9002

EPHEMERIS_TYPE = 0
CLASSIFICATION_TYPE = U
NORAD_CAT_ID   = 89161
ELEMENT_SET_NO = 999
REV_AT_EPOCH   = 54329
BSTAR          = .25583E-2
MEAN_MOTION_DOT = .84483E-3
MEAN_MOTION_DDOT = 0

CCSDS_OMM_VERS = 2.0
CREATION_DATE  = 
ORIGINATOR     = 

OBJECT_NAME    = UNKNOWN
OBJECT_ID      = 
CENTER_NAME    = EARTH
REF_FRAME      = TEME
TIME_SYSTEM    = UTC
MEAN_ELEMENT_THEORY = SGP/SGP4

EPOCH          = 2025-11-06T13:25:17.304384
MEAN_MOTION    = 14.44728547
ECCENTRICITY   = .0299972
INCLINATION    = 82.0637
RA_OF_ASC_NODE = 255.8555
ARG_OF_PERICENTER = 32.7390
MEAN_ANOMALY   = 329.2000

EPHEMERIS_TYPE = 0
CLASSIFICATION_TYPE = U
NORAD_CAT_ID   = 89172
ELEMENT_SET_NO = 999
REV_AT_EPOCH   = 59666
BSTAR          = .50523E-2
MEAN_MOTION_DOT = .30689E-3
MEAN_MOTION_DDOT = 0

CCSDS_OMM_VERS = 2.0
CREATION_DATE  = 
ORIGINATOR     = 

OBJECT_NAME    = UNKNOWN
OBJECT_ID      = 
CENTER_NAME    = EARTH
REF_FRAME      = TEME
TIME_SYSTEM    = UTC
MEAN_ELEMENT_THEORY = SGP/SGP4

EPOCH          = 2025-10-31T16:59:12.233472
MEAN_MOTION    = 13.73716333
ECCENTRICITY   = .0031017
INCLINATION    = 82.9179
RA_OF_ASC_NODE = 300.2932
ARG_OF_PERICENTER = 259.1924
MEAN_ANOMALY   = 100.5739

EPHEMERIS_TYPE = 0
CLASSIFICATION_TYPE = U
NORAD_CAT_ID   = 89177
ELEMENT_SET_NO = 999
REV_AT_EPOCH   = 5705
BSTAR          = .12562E-3
MEAN_MOTION_DOT = .132E-5
MEAN_MOTION_DDOT = 0

CCSDS_OMM_VERS = 2.0
CREATION_DATE  = 
ORIGINATOR     = 

OBJECT_NAME    = UNKNOWN
OBJECT_ID      = 
CENTER_NAME    = EARTH
REF_FRAME      = TEME
TIME_SYSTEM    = UTC
MEAN_ELEMENT_THEORY = SGP/SGP4

EPOCH          = 2025-11-07T13:32:15.618624
MEAN_MOTION    = 13.81527682
ECCENTRICITY   = .0129658
INCLINATION    = 99.2159
RA_OF_ASC_NODE = 223.4479
ARG_OF_PERICENTER = 250.5993
MEAN_ANOMALY   = 108.1108

EPHEMERIS_TYPE = 0
CLASSIFICATION_TYPE = U
NORAD_CAT_ID   = 89183
ELEMENT_SET_NO = 999
REV_AT_EPOCH   = 60211
BSTAR          = .6718E-3
MEAN_MOTION_DOT = .719E-5
MEAN_MOTION_DDOT = 0

CCSDS_OMM_VERS = 2.0
CREATION_DATE  = 
ORIGINATOR     = 

OBJECT_NAME    = UNKNOWN
OBJECT_ID      = 
CENTER_NAME    = EARTH
REF_FRAME      = TEME
TIME_SYSTEM    = UTC
MEAN_ELEMENT_THEORY = SGP/SGP4

EPOCH          = 2025-11-07T20:39:17.638848
MEAN_MOTION    = 14.78574719
ECCENTRICITY   = .0009162
INCLINATION    = 98.3888
RA_OF_ASC_NODE = 175.0398
ARG_OF_PERICENTER = 252.5628
MEAN_ANOMALY   = 107.4580

EPHEMERIS_TYPE = 0
CLASSIFICATION_TYPE = U
NORAD_CAT_ID   = 89184
ELEMENT_SET_NO = 999
REV_AT_EPOCH   = 48701
BSTAR          = .4729E-2
MEAN_MOTION_DOT = .34721E-3
MEAN_MOTION_DDOT = 0

CCSDS_OMM_VERS = 2.0
CREATION_DATE  = 
ORIGINATOR     = 

OBJECT_NAME    = UNKNOWN
OBJECT_ID      = 
CENTER_NAME    = EARTH
REF_FRAME      = TEME
TIME_SYSTEM    = UTC
MEAN_ELEMENT_THEORY = SGP/SGP4

EPOCH          = 2025-11-04T10:46:55.970688
MEAN_MOTION    = 13.91529292
ECCENTRICITY   = .0226922
INCLINATION    = 98.7820
RA_OF_ASC_NODE = 183.5985
ARG_OF_PERICENTER = 231.6129
MEAN_ANOMALY   = 126.4457

EPHEMERIS_TYPE = 0
CLASSIFICATION_TYPE = U
NORAD_CAT_ID   = 89213
ELEMENT_SET_NO = 999
REV_AT_EPOCH   = 44734
BSTAR          = .41729E-3
MEAN_MOTION_DOT = .609E-5
MEAN_MOTION_DDOT = 0

