UNKNOWN                 
1 89003U          25290.22784969  .00000441  00000+0  16019-3 0  9993
2 89003  74.0437 118.2873 0015417 192.1857 167.8926 14.36134798623431
UNKNOWN                 
1 89005U          25312.33971364  .00004935  00000+0  11263-2 0  9996
2 89005  97.8405 144.0700 0193023 137.2664 224.3724 14.45304254529125
UNKNOWN                 
1 89029U          25311.47551724  .00009932  00000+0  93607-3 0  9995
2 89029  98.0496 209.8488 0024975  81.2223 279.1823 14.93781340645816
UNKNOWN                 
1 89101U          25298.06964929  .00000216  00000+0  77426-3 0  9997
2 89101 100.4545 236.3345 0146349 216.5228 142.5827 13.03990385548501
UNKNOWN                 
1 89132U          25291.46437776  .00000476  00000+0  68324-3 0  9998
2 89132  63.4250 114.5551 2931268 319.6561  21.9492  8.86156392320212
UNKNOWN                 
1 89146U          25311.76101384  .00005813  00000+0  10823-2 0  9992
2 89146  98.2439 240.5130 0093852 163.9065 196.5153 14.62622452623765
UNKNOWN                 
1 89161U          25312.29451090  .00084483  00000+0  25583-2 0  9999
2 89161  97.6636 326.5986 0041839 181.2145 178.9002 15.32970775543296
UNKNOWN                 
1 89172U          25310.55922806  .00030689  00000+0  50523-2 0  9997
2 89172  82.0637 255.8555 0299972  32.7390 329.2000 14.44728547596666
UNKNOWN                 
1 89177U          25304.70778048  .00000132  00000+0  12562-3 0  9991
2 89177  82.9179 300.2932 0031017 259.1924 100.5739 13.73716333 57052
UNKNOWN                 
1 89183U          25311.56406966  .00000719  00000+0  67180-3 0  9994
2 89183  99.2159 223.4479 0129658 250.5993 108.1108 13.81527682602113
UNKNOWN                 
1 89184U          25311.86062082  .00034721  00000+0  47290-2 0  9994
2 89184  98.3888 175.0398 0009162 252.5628 107.4580 14.78574719487015
UNKNOWN                 
1 89213U          25308.44925892  .00000609  00000+0  41729-3 0  9994
2 89213  98.7820 183.5985 0226922 231.6129 126.4457 13.91529292447349
